NORAD_CAT_ID,OBJECT_NAME,OBJECT_TYPE,EPOCH,MEAN_MOTION,ECCENTRICITY,INCLINATION,RA_OF_ASC_NODE,ARG_OF_PERICENTER,MEAN_ANOMALY,BSTAR,MEAN_MOTION_DOT,MEAN_MOTION_DDOT,TLE_LINE0,TLE_LINE1,TLE_LINE2,SEMIMAJOR_AXIS,PERIOD,APOGEE,PERIGEE,DECAYED
55744.0,STARLINK-5601,PAYLOAD,2023-03-20 06:00:00,15.72286958,0.0003671,69.9935,108.8541,269.3393,43.3873,-0.0078418,-0.00933001,0.0,0 STARLINK-5601,1 55744U 23028D   23079.25001157 -.00933001  00000-0 -78418-2 0  9990,2 55744  69.9935 108.8541 0003671 269.3393  43.3873 15.72286958  3258,6730.5,91.586,354.835,349.894,0.0
55744.0,STARLINK-5601,PAYLOAD,2023-03-20 14:00:01,15.71639294,0.0003649,69.993,107.9141,275.8846,122.5908,-0.0079408,-0.00920497,0.0,0 STARLINK-5601,1 55744U 23028D   23079.58334491 -.00920497  00000-0 -79408-2 0  9991,2 55744  69.9930 107.9141 0003649 275.8846 122.5908 15.71639294  1306,6732.348,91.624,356.67,351.757,0.0
55744.0,STARLINK-5601,PAYLOAD,2023-03-20 22:00:01,15.70939739,0.000342,69.9936,106.975,267.6602,215.8728,-0.0073967,-0.00840487,0.0,0 STARLINK-5601,1 55744U 23028D   23079.91668981 -.00840487  00000-0 -73967-2 0  9996,2 55744  69.9936 106.9750 0003420 267.6602 215.8728 15.70939739  3363,6734.347,91.665,358.515,353.909,0.0
55744.0,STARLINK-5601,PAYLOAD,2023-03-21 14:00:01,15.69919277,0.0003457,69.9965,105.0988,274.1348,17.0635,5.2122e-06,4.14e-06,0.0,0 STARLINK-5601,1 55744U 23028D   23080.58335648  .00000414  00000-0  52122-5 0  9991,2 55744  69.9965 105.0988 0003457 274.1348  17.0635 15.69919277  3461,6737.265,91.724,361.459,356.801,0.0
55744.0,STARLINK-5601,PAYLOAD,2023-03-21 22:00:00,15.69881217,0.0003449,69.9987,104.1614,266.862,107.6161,0.00073724,0.00089225,0.0,0 STARLINK-5601,1 55744U 23028D   23080.91667824  .00089225  00000-0  73724-3 0  9998,2 55744  69.9987 104.1614 0003449 266.8620 107.6161 15.69881217  1306,6737.374,91.727,361.563,356.915,0.0
55744.0,STARLINK-5601,PAYLOAD,2023-03-22 22:00:00,15.69859683,0.0003554,70.0003,101.3495,263.9213,0.5993,0.00066431,0.00080221,0.0,0 STARLINK-5601,1 55744U 23028D   23081.91667824  .00080221  00000-0  66431-3 0  9993,2 55744  70.0003 101.3495 0003554 263.9213   0.5993 15.69859683  3675,6737.435,91.728,361.695,356.906,0.0
55744.0,STARLINK-5601,PAYLOAD,2023-03-23 06:00:00,15.69908943,0.0003635,70.0008,100.4123,265.6958,82.0984,0.00016319,0.00019444,0.0,0 STARLINK-5601,1 55744U 23028D   23082.25001157  .00019444  00000-0  16319-3 0  9991,2 55744  70.0008 100.4123 0003635 265.6958  82.0984 15.69908943  3739,6737.295,91.725,361.609,356.711,0.0
55744.0,STARLINK-5601,PAYLOAD,2023-03-23 14:00:01,15.69961052,0.0003621,70.0003,99.475,267.4295,163.7495,-0.00040617,-0.00048846,0.0,0 STARLINK-5601,1 55744U 23028D   23082.58335648 -.00048846  00000-0 -40617-3 0  9990,2 55744  70.0003  99.4750 0003621 267.4295 163.7495 15.69961052  1301,6737.145,91.722,361.45,356.571,0.0
55744.0,STARLINK-5601,PAYLOAD,2023-03-24 17:00:11,15.7005179,0.0003325,70.0006,96.3126,277.871,30.2005,-0.0068602,-0.00758457,0.0,0 STARLINK-5601,1 55744U 23028D   23083.70846065 -.00758457  00000-0 -68602-2 0  9994,2 55744  70.0006  96.3126 0003325 277.8710  30.2005 15.70051790  3954,6736.886,91.717,360.991,356.511,0.0
55744.0,STARLINK-5601,PAYLOAD,2023-03-24 22:00:01,15.69740167,0.0003457,70.0008,95.7276,275.9201,128.6124,-0.007777,-0.00840412,0.0,0 STARLINK-5601,1 55744U 23028D   23083.91668981 -.00840412  00000-0 -77770-2 0  9995,2 55744  70.0008  95.7276 0003457 275.9201 128.6124 15.69740167  1307,6737.777,91.735,361.972,357.313,0.0
55744.0,STARLINK-5601,PAYLOAD,2023-03-25 03:55:46,15.69615918,0.0002797,70.0006,95.0322,261.5986,98.4893,-0.00088897,-0.00104435,0.0,0 STARLINK-5601,1 55744U 23028D   23084.16372752 -.00104435  00000-0 -88897-3 0  9992,2 55744  70.0006  95.0322 0002797 261.5986  98.4893 15.69615918  4032,6738.133,91.742,361.883,358.113,0.0
55744.0,STARLINK-5601,PAYLOAD,2023-03-25 10:02:33,15.70686139,0.0009394,70.0007,94.3153,289.5042,70.5139,0.0043442,0.00578338,0.0,0 STARLINK-5601,1 55744U 23028D   23084.41843904  .00578338  00000-0  43442-2 0  9993,2 55744  70.0007  94.3153 0009394 289.5042  70.5139 15.70686139  4073,6735.072,91.68,363.264,350.61,0.0
55744.0,STARLINK-5601,PAYLOAD,2023-03-25 22:00:00,15.67796917,0.0003631,70.001,92.9213,271.6837,18.6924,-0.0086947,-0.00864605,0.0,0 STARLINK-5601,1 55744U 23028D   23084.91667824 -.00864605  00000-0 -86947-2 0  9997,2 55744  70.0010  92.9213 0003631 271.6837  18.6924 15.67796917  4145,6743.344,91.849,367.657,362.76,0.0
55744.0,STARLINK-5601,PAYLOAD,2023-03-26 14:00:01,15.66552216,0.0003418,70.0008,91.0547,276.3762,174.0118,-0.010366,-0.00983207,0.0,0 STARLINK-5601,1 55744U 23028D   23085.58334491 -.00983207  00000-0 -10366-1 0  9993,2 55744  70.0008  91.0547 0003418 276.3762 174.0118 15.66552216  4259,6746.915,91.922,371.086,366.474,0.0
55744.0,STARLINK-5601,PAYLOAD,2023-03-26 22:00:01,15.65848558,0.000329,70.0011,90.1228,267.02,262.2899,-0.0095525,-0.00889261,0.0,0 STARLINK-5601,1 55744U 23028D   23085.91668981 -.00889261  00000-0 -95525-2 0  9990,2 55744  70.0011  90.1228 0003290 267.0200 262.2899 15.65848558  4309,6748.936,91.963,373.022,368.581,0.0
55744.0,STARLINK-5601,PAYLOAD,2023-03-27 14:00:01,15.64580278,0.0003366,70.0012,88.2616,270.6326,53.9418,-0.011017,-0.00966973,0.0,0 STARLINK-5601,1 55744U 23028D   23086.58334491 -.00966973  00000-0 -11017-1 0  9999,2 55744  70.0012  88.2616 0003366 270.6326  53.9418 15.64580278  4406,6752.583,92.037,376.721,372.175,0.0
55744.0,STARLINK-5601,PAYLOAD,2023-03-27 22:00:00,15.638961,0.0003379,70.0013,87.3326,265.5936,135.4795,-0.010419,-0.00896561,0.0,0 STARLINK-5601,1 55744U 23028D   23086.91667824 -.00896561  00000-0 -10419-1 0  9995,2 55744  70.0013  87.3326 0003379 265.5936 135.4795 15.63896100  1302,6754.552,92.078,378.7,374.135,0.0
55744.0,STARLINK-5601,PAYLOAD,2023-03-28 06:00:00,15.6322074,0.0003265,70.0011,86.4044,270.8182,205.9831,-0.010496,-0.00880829,0.0,0 STARLINK-5601,1 55744U 23028D   23087.25001157 -.00880829  00000-0 -10496-1 0  9999,2 55744  70.0011  86.4044 0003265 270.8182 205.9831 15.63220740  4514,6756.498,92.118,380.569,376.157,0.0
55744.0,STARLINK-5601,PAYLOAD,2023-03-28 14:00:01,15.62619604,0.000313,70.001,85.4769,271.1683,280.5444,-0.011823,-0.00960868,0.0,0 STARLINK-5601,1 55744U 23028D   23087.58334491 -.00960868  00000-0 -11823-1 0  9992,2 55744  70.0010  85.4769 0003130 271.1683 280.5444 15.62619604  1300,6758.23,92.153,382.211,377.98,0.0
55744.0,STARLINK-5601,PAYLOAD,2023-03-28 22:00:00,15.61946095,0.000335,70.0012,84.5504,264.1046,1.7573,-0.0114,-0.00907594,0.0,0 STARLINK-5601,1 55744U 23028D   23087.91667824 -.00907594  00000-0 -11400-1 0  9996,2 55744  70.0012  84.5504 0003350 264.1046   1.7573 15.61946095  4617,6760.173,92.193,384.303,379.773,0.0
55744.0,STARLINK-5601,PAYLOAD,2023-03-29 14:00:01,15.60659657,0.0003411,70.001,82.7002,273.7619,138.0496,-0.012682,-0.00955691,0.0,0 STARLINK-5601,1 55744U 23028D   23088.58334491 -.00955691  00000-0 -12682-1 0  9995,2 55744  70.0010  82.7002 0003411 273.7619 138.0496 15.60659657  4722,6763.887,92.269,388.06,383.445,0.0
55744.0,STARLINK-5601,PAYLOAD,2023-03-29 22:00:00,15.59990444,0.0003359,70.0012,81.7764,267.3249,216.2878,-0.012329,-0.00909875,0.0,0 STARLINK-5601,1 55744U 23028D   23088.91667824 -.00909875  00000-0 -12329-1 0  9992,2 55744  70.0012  81.7764 0003359 267.3249 216.2878 15.59990444  1301,6765.822,92.308,389.959,385.414,0.0
55744.0,STARLINK-5601,PAYLOAD,2023-03-30 06:00:00,15.59308834,0.000329,70.0011,80.8535,270.9198,283.7291,-0.012195,-0.00879621,0.0,0 STARLINK-5601,1 55744U 23028D   23089.25001157 -.00879621  00000-0 -12195-1 0  9997,2 55744  70.0011  80.8535 0003290 270.9198 283.7291 15.59308834  4827,6767.793,92.349,391.885,387.432,0.0
55744.0,STARLINK-5601,PAYLOAD,2023-03-30 22:00:00,15.58040092,0.0003548,70.0012,79.0106,265.8904,68.4293,-0.013407,-0.00917938,0.0,0 STARLINK-5601,1 55744U 23028D   23089.91667824 -.00917938  00000-0 -13407-1 0  9990,2 55744  70.0012  79.0106 0003548 265.8904  68.4293 15.58040092  4925,6771.467,92.424,395.734,390.929,0.0
55744.0,STARLINK-5601,PAYLOAD,2023-03-31 22:00:00,15.56086345,0.0003413,70.0009,76.2523,264.3269,273.6605,-0.014514,-0.00923018,0.0,0 STARLINK-5601,1 55744U 23028D   23090.91667824 -.00923018  00000-0 -14514-1 0  9998,2 55744  70.0009  76.2523 0003413 264.3269 273.6605 15.56086345  5086,6777.134,92.54,401.312,396.686,0.0
55744.0,STARLINK-5601,PAYLOAD,2023-04-01 14:00:01,15.54790137,0.0003522,70.0006,74.4179,270.4376,39.4222,-0.015896,-0.00959773,0.0,0 STARLINK-5601,1 55744U 23028D   23091.58334491 -.00959773  00000-0 -15896-1 0  9994,2 55744  70.0006  74.4179 0003522 270.4376  39.4222 15.54790137  1301,6780.9,92.617,405.153,400.377,0.0
55744.0,STARLINK-5601,PAYLOAD,2023-04-01 22:00:00,15.54128599,0.0003562,70.0009,73.5024,268.1819,106.4343,-0.015606,-0.00923296,0.0,0 STARLINK-5601,1 55744U 23028D   23091.91667824 -.00923296  00000-0 -15606-1 0  9990,2 55744  70.0009  73.5024 0003562 268.1819 106.4343 15.54128599  5246,6782.824,92.656,407.105,402.273,0.0
55744.0,STARLINK-5601,PAYLOAD,2023-04-02 14:00:01,15.52835684,0.0003483,70.0004,71.6731,271.5366,230.254,-0.017079,-0.00973875,0.0,0 STARLINK-5601,1 55744U 23028D   23092.58334491 -.00973875  00000-0 -17079-1 0  9999,2 55744  70.0004  71.6731 0003483 271.5366 230.2540 15.52835684  1308,6786.588,92.734,410.817,406.09,0.0
55744.0,STARLINK-5601,PAYLOAD,2023-04-02 22:00:00,15.5217813,0.0003287,70.0008,70.7604,263.4241,300.7765,-0.016904,-0.00930745,0.0,0 STARLINK-5601,1 55744U 23028D   23092.91667824 -.00930745  00000-0 -16904-1 0  9990,2 55744  70.0008  70.7604 0003287 263.4241 300.7765 15.52178130  1303,6788.505,92.773,412.601,408.139,0.0
55744.0,STARLINK-5601,PAYLOAD,2023-04-03 06:00:00,15.51335734,0.0003254,70.0008,69.8482,269.9836,355.8717,-0.0029496,-0.00170426,0.0,0 STARLINK-5601,1 55744U 23028D   23093.25001157 -.00170426  00000-0 -29496-2 0  9992,2 55744  70.0008  69.8482 0003254 269.9836 355.8717 15.51335734  5442,6790.962,92.823,415.037,410.617,0.0
